NORAD_CAT_ID,OBJECT_NAME,OBJECT_TYPE,EPOCH,MEAN_MOTION,ECCENTRICITY,INCLINATION,RA_OF_ASC_NODE,ARG_OF_PERICENTER,MEAN_ANOMALY,BSTAR,MEAN_MOTION_DOT,MEAN_MOTION_DDOT,TLE_LINE0,TLE_LINE1,TLE_LINE2,SEMIMAJOR_AXIS,PERIOD,APOGEE,PERIGEE,DECAYED
52660.0,STARLINK-4081,PAYLOAD,2022-09-02 14:00:01,15.08832836,0.0002024,53.2133,158.6925,63.9714,76.5667,0.0012479,0.00019624,0.0,0 STARLINK-4081,1 52660U 22053E   22245.58334491  .00019624  00000-0  12479-2 0  9990,2 52660  53.2133 158.6925 0002024  63.9714  76.5667 15.08832836  1307,6917.901999999999,95.438,541.1669999999998,538.367,0.0
52660.0,STARLINK-4081,PAYLOAD,2022-09-02 20:00:01,15.0885964,0.0002078,53.2134,157.5704,64.9838,354.2423,-0.0029794,-0.0004742,0.0,0 STARLINK-4081,1 52660U 22053E   22245.83334491 -.00047420  00000-0 -29794-2 0  9993,2 52660  53.2134 157.5704 0002078  64.9838 354.2423 15.08859640 17291,6917.82,95.436,541.123,538.248,0.0
52660.0,STARLINK-4081,PAYLOAD,2022-09-02 22:00:01,15.08850403,0.0002105,53.2134,157.1966,63.0827,89.111,-0.0027056999999999,-0.00043106,0.0,0 STARLINK-4081,1 52660U 22053E   22245.91668981 -.00043106  00000-0 -27057-2 0  9993,2 52660  53.2134 157.1966 0002105  63.0827  89.1110 15.08850403  1306,6917.849,95.437,541.17,538.257,0.0
52660.0,STARLINK-4081,PAYLOAD,2022-09-03 14:00:01,15.08816217,0.0002036,53.2136,154.2029,63.577,111.7336,0.0026224,0.00041668,0.0,0 STARLINK-4081,1 52660U 22053E   22246.58334491  .00041668  00000-0  26224-2 0  9997,2 52660  53.2136 154.2029 0002036  63.5770 111.7336 15.08816217 17406,6917.953,95.439,541.227,538.41,0.0
52660.0,STARLINK-4081,PAYLOAD,2022-09-03 22:00:00,15.08860424,0.0002161,53.2138,152.7074,63.2661,123.6318,-0.001155,-0.00018634,0.0,0 STARLINK-4081,1 52660U 22053E   22246.91667824 -.00018634  00000-0 -11550-2 0  9998,2 52660  53.2138 152.7074 0002161  63.2661 123.6318 15.08860424  1309,6917.818,95.436,541.178,538.188,0.0
52660.0,STARLINK-4081,PAYLOAD,2022-09-04 12:00:00,15.08861537,0.0002017,53.2142,150.0878,63.405,53.8318,-0.0012433,-0.00020033,0.0,0 STARLINK-4081,1 52660U 22053E   22247.50001157 -.00020033  00000-0 -12433-2 0  9992,2 52660  53.2142 150.0878 0002017  63.4050  53.8318 15.08861537 17544,6917.815,95.436,541.075,538.284,0.0
52660.0,STARLINK-4081,PAYLOAD,2022-09-04 14:00:01,15.08835945,0.0001992,53.2141,149.7133,63.7009,146.5133,0.0023103,0.00036668,0.0,0 STARLINK-4081,1 52660U 22053E   22247.58335648  .00036668  00000-0  23103-2 0  9990,2 52660  53.2141 149.7133 0001992  63.7009 146.5133 15.08835945  1306,6917.893,95.438,541.136,538.38,0.0
52660.0,STARLINK-4081,PAYLOAD,2022-09-04 20:00:01,15.08881179,0.000199,53.2144,148.5915,63.9186,64.9289,-0.0035399,-0.00056251,0.0,0 STARLINK-4081,1 52660U 22053E   22247.83334491 -.00056251  00000-0 -35399-2 0  9995,2 52660  53.2144 148.5915 0001990  63.9186  64.9289 15.08881179  1305,6917.755,95.435,540.996,538.243,0.0
52660.0,STARLINK-4081,PAYLOAD,2022-09-05 04:00:00,15.08825806,0.0002015,53.2144,147.0964,56.502,83.9724,0.0029441999999999,0.00046863,0.0,0 STARLINK-4081,1 52660U 22053E   22248.16667824  .00046863  00000-0  29442-2 0  9999,2 52660  53.2144 147.0964 0002015  56.5020  83.9724 15.08825806 17641,6917.924,95.438,541.183,538.395,0.0
52660.0,STARLINK-4081,PAYLOAD,2022-09-05 12:00:00,15.08832965,0.0001774,53.2147,145.5984,60.7695,91.3149,0.00065494,0.00010149,0.0,0 STARLINK-4081,1 52660U 22053E   22248.50001157  .00010149  00000-0  65494-3 0  9994,2 52660  53.2147 145.5984 0001774  60.7695  91.3149 15.08832965 17698,6917.901999999999,95.438,540.994,538.54,0.0
52660.0,STARLINK-4081,PAYLOAD,2022-09-05 14:00:01,15.08820463,0.0001744,53.2146,145.2239,62.0763,182.9112,0.0022197,0.00035197,0.0,0 STARLINK-4081,1 52660U 22053E   22248.58334491  .00035197  00000-0  22197-2 0  9994,2 52660  53.2146 145.2239 0001744  62.0763 182.9112 15.08820463  1303,6917.94,95.439,541.012,538.599,0.0
52660.0,STARLINK-4081,PAYLOAD,2022-09-05 22:00:00,15.08845132,0.0001738,53.2148,143.7289,57.6247,198.9461,-0.0046919,-0.00074202,0.0,0 STARLINK-4081,1 52660U 22053E   22248.91667824 -.00074202  00000-0 -46919-2 0  9990,2 52660  53.2148 143.7289 0001738  57.6247 198.9461 15.08845132  1307,6917.865,95.437,540.932,538.5269999999998,0.0
52660.0,STARLINK-4081,PAYLOAD,2022-09-06 04:00:00,15.08776181,0.0001736,53.2147,142.6072,51.3409,123.9176,0.0030851,0.00049068,0.0,0 STARLINK-4081,1 52660U 22053E   22249.16667824  .00049068  00000-0  30851-2 0  9996,2 52660  53.2147 142.6072 0001736  51.3409 123.9176 15.08776181 17791,6918.075,95.442,541.141,538.739,0.0
52660.0,STARLINK-4081,PAYLOAD,2022-09-06 14:00:01,15.0878123,0.0001579,53.2147,140.7349,59.7621,219.9313,0.0033946,0.00054065,0.0,0 STARLINK-4081,1 52660U 22053E   22249.58334491  .00054065  00000-0  33946-2 0  9994,2 52660  53.2147 140.7349 0001579  59.7621 219.9313 15.08781230  1300,6918.06,95.441,541.0169999999998,538.8330000000002,0.0
52660.0,STARLINK-4081,PAYLOAD,2022-09-06 22:00:00,15.08822923,0.0001683,53.2148,139.2401,56.9759,234.2654,-0.00084332,-0.00013678,0.0,0 STARLINK-4081,1 52660U 22053E   22249.91667824 -.00013678  00000-0 -84332-3 0  9993,2 52660  53.2148 139.2401 0001683  56.9759 234.2654 15.08822923 17906,6917.933000000001,95.439,540.962,538.633,0.0
52660.0,STARLINK-4081,PAYLOAD,2022-09-07 14:00:01,15.08808143,0.000159,53.2145,136.2461,62.722,251.6754,0.0034953,0.00055731,0.0,0 STARLINK-4081,1 52660U 22053E   22250.58334491  .00055731  00000-0  34953-2 0  9996,2 52660  53.2145 136.2461 0001590  62.7220 251.6754 15.08808143 18005,6917.978,95.44,540.943,538.743,0.0
52660.0,STARLINK-4081,PAYLOAD,2022-09-07 22:00:00,15.08846765,0.0001708,53.2145,134.7513,58.4848,267.4915,-0.00082287,-0.00013363,0.0,0 STARLINK-4081,1 52660U 22053E   22250.91667824 -.00013363  00000-0 -82287-3 0  9993,2 52660  53.2145 134.7513 0001708  58.4848 267.4915 15.08846765  1306,6917.86,95.437,540.906,538.543,0.0
52660.0,STARLINK-4081,PAYLOAD,2022-09-08 06:00:00,15.08871039,0.0001673,53.2141,133.2549,54.7867,282.7837,-0.0031659,-0.00050364,0.0,0 STARLINK-4081,1 52660U 22053E   22251.25001157 -.00050364  00000-0 -31659-2 0  9990,2 52660  53.2141 133.2549 0001673  54.7867 282.7837 15.08871039 18107,6917.786,95.436,540.808,538.493,0.0
52660.0,STARLINK-4081,PAYLOAD,2022-09-08 14:00:01,15.08805237,0.0001528,53.2141,131.757,62.4802,286.7098,0.0033667,0.0005365,0.0,0 STARLINK-4081,1 52660U 22053E   22251.58334491  .00053650  00000-0  33667-2 0  9996,2 52660  53.2141 131.7570 0001528  62.4802 286.7098 15.08805237  1302,6917.986999999999,95.44,540.909,538.795,0.0
52660.0,STARLINK-4081,PAYLOAD,2022-09-08 22:00:00,15.08842724,0.0001686,53.214,130.2622,57.5174,303.2503,-0.00071947,-0.00011721,0.0,0 STARLINK-4081,1 52660U 22053E   22251.91667824 -.00011721  00000-0 -71947-3 0  9991,2 52660  53.2140 130.2622 0001686  57.5174 303.2503 15.08842724  1314,6917.871999999999,95.437,540.903,538.571,0.0
52660.0,STARLINK-4081,PAYLOAD,2022-09-09 14:00:01,15.08809409,0.0001699,53.2137,127.2676,64.6501,319.3231,0.0033694,0.000537,0.0,0 STARLINK-4081,1 52660U 22053E   22252.58334491  .00053700  00000-0  33694-2 0  9993,2 52660  53.2137 127.2676 0001699  64.6501 319.3231 15.08809409  1300,6917.974,95.439,541.014,538.664,0.0
52660.0,STARLINK-4081,PAYLOAD,2022-09-09 20:00:01,15.08850366,0.0001779,53.2138,126.1465,61.4526,241.2012,-0.00095236,-0.00015417,0.0,0 STARLINK-4081,1 52660U 22053E   22252.83334491 -.00015417  00000-0 -95236-3 0  9997,2 52660  53.2138 126.1465 0001779  61.4526 241.2012 15.08850366 18346,6917.849,95.437,540.944,538.4830000000002,0.0
52660.0,STARLINK-4081,PAYLOAD,2022-09-09 22:00:00,15.08845783,0.0001836,53.2137,125.7729,59.4543,336.101,-0.00047934,-7.91e-05,0.0,0 STARLINK-4081,1 52660U 22053E   22252.91667824 -.00007910  00000-0 -47934-3 0  9996,2 52660  53.2137 125.7729 0001836  59.4543 336.1010 15.08845783  1300,6917.863,95.437,540.998,538.4580000000002,0.0
52660.0,STARLINK-4081,PAYLOAD,2022-09-10 14:00:01,15.08812391,0.0001675,53.2137,122.778,62.9855,355.7673,0.0029955999999999,0.00047674,0.0,0 STARLINK-4081,1 52660U 22053E   22253.58334491  .00047674  00000-0  29956-2 0  9993,2 52660  53.2137 122.7780 0001675  62.9855 355.7673 15.08812391  1301,6917.965,95.439,540.989,538.6709999999998,0.0
52660.0,STARLINK-4081,PAYLOAD,2022-09-10 20:00:01,15.08849104,0.0001761999999999,53.2137,121.6569,59.1572,278.2776,-0.0010742,-0.00017348,0.0,0 STARLINK-4081,1 52660U 22053E   22253.83334491 -.00017348  00000-0 -10742-2 0  9991,2 52660  53.2137 121.6569 0001762  59.1572 278.2776 15.08849104 18498,6917.853,95.437,540.936,538.499,0.0
52660.0,STARLINK-4081,PAYLOAD,2022-09-10 22:00:00,15.08844202,0.0001821,53.2137,121.2832,57.2669,13.0678,-0.00066815,-0.00010907,0.0,0 STARLINK-4081,1 52660U 22053E   22253.91667824 -.00010907  00000-0 -66815-3 0  9996,2 52660  53.2137 121.2832 0001821  57.2669  13.0678 15.08844202  1301,6917.868,95.437,540.992,538.4730000000002,0.0
52660.0,STARLINK-4081,PAYLOAD,2022-09-11 06:00:00,15.08806703,0.0001661,53.2146,119.786,60.3852,21.5484,-0.0032813,-0.00052086,0.0,0 STARLINK-4081,1 52660U 22053E   22254.25001157 -.00052086  00000-0 -32813-2 0  9999,2 52660  53.2146 119.7860 0001661  60.3852  21.5484 15.08806703 18564,6917.982,95.44,540.996,538.698,0.0
52660.0,STARLINK-4081,PAYLOAD,2022-09-11 14:00:01,15.08864149,0.0001672,53.2159,118.2878,60.8576,32.5839,0.003332,0.00053177,0.0,0 STARLINK-4081,1 52660U 22053E   22254.58334491  .00053177  00000-0  33320-2 0  9999,2 52660  53.2159 118.2878 0001672  60.8576  32.5839 15.08864149 18611,6917.807,95.436,540.828,538.515,0.0
52660.0,STARLINK-4081,PAYLOAD,2022-09-11 20:00:01,15.08865486,0.0001854,53.217,117.1668,57.1334,315.063,-0.0029557,-0.00047055,0.0,0 STARLINK-4081,1 52660U 22053E   22254.83334491 -.00047055  00000-0 -29557-2 0  9994,2 52660  53.2170 117.1668 0001854  57.1334 315.0630 15.08865486 18659,6917.802,95.436,540.95,538.385,0.0
